{
    "links": {
        "self": "http://www.neowsapp.com/rest/v1/neo/3459472?api_key=iIulBulltgU6a56xZRHN4H3l9WmuAYTsLGpBGhQ2"
    },
    "id": "3459472",
    "neo_reference_id": "3459472",
    "name": "(2009 JE1)",
    "designation": "2009 JE1",
    "nasa_jpl_url": "http://ssd.jpl.nasa.gov/sbdb.cgi?sstr=3459472",
    "absolute_magnitude_h": 26.8,
    "estimated_diameter": {
        "kilometers": {
            "estimated_diameter_min": 0.0116025908,
            "estimated_diameter_max": 0.0259441818
        },
        "meters": {
            "estimated_diameter_min": 11.6025908209,
            "estimated_diameter_max": 25.9441817907
        },
        "miles": {
            "estimated_diameter_min": 0.0072095135,
            "estimated_diameter_max": 0.0161209622
        },
        "feet": {
            "estimated_diameter_min": 38.066244069,
            "estimated_diameter_max": 85.1187093863
        }
    },
    "is_potentially_hazardous_asteroid": false,
    "close_approach_data": [
        {
            "close_approach_date": "2009-05-09",
            "close_approach_date_full": "2009-May-09 07:25",
            "epoch_date_close_approach": 1241853900000,
            "relative_velocity": {
                "kilometers_per_second": "7.8530920134",
                "kilometers_per_hour": "28271.13124839",
                "miles_per_hour": "17566.5815248677"
            },
            "miss_distance": {
                "astronomical": "0.0153553612",
                "lunar": "5.9732355068",
                "kilometers": "2297129.328600644",
                "miles": "1427369.9767671272"
            },
            "orbiting_body": "Earth"
        }
    ],
    "orbital_data": {
        "orbit_id": "6",
        "orbit_determination_date": "2017-04-06 09:00:36",
        "first_observation_date": "2009-05-04",
        "last_observation_date": "2009-05-04",
        "data_arc_in_days": null,
        "observations_used": 9,
        "orbit_uncertainty": "9",
        "minimum_orbit_intersection": ".0122802",
        "jupiter_tisserand_invariant": "4.775",
        "epoch_osculation": "2454955.5",
        "eccentricity": ".2943227668051382",
        "semi_major_axis": "1.367648283295151",
        "inclination": "8.031704082151066",
        "ascending_node_longitude": "46.15163904394789",
        "orbital_period": "584.1979973780914",
        "perihelion_distance": ".9651182565394247",
        "perihelion_argument": "223.1966741937757",
        "aphelion_distance": "1.770178310050877",
        "perihelion_time": "2454996.051124238314",
        "mean_anomaly": "335.0112037505925",
        "mean_motion": ".6162294318291012",
        "equinox": "J2000",
        "orbit_class": {
            "orbit_class_type": "APO",
            "orbit_class_description": "Near-Earth asteroid orbits which cross the Earth’s orbit similar to that of 1862 Apollo",
            "orbit_class_range": "a (semi-major axis) > 1.0 AU; q (perihelion) < 1.017 AU"
        }
    },
    "is_sentry_object": false
}